MOLNIYA 1-80            
1 21118U 91012A   12353.15730560 -.00001583  00000-0  10000-3 0  2082
2 21118  61.5860  79.4310 7442803 272.3650  12.7463  2.00394749160028
MOLNIYA 3-40            
1 21196U 91022A   12353.38433714  .00001912  00000-0  45244-3 0  7184
2 21196  61.7285  58.6646 7475220 276.0467  11.5083  2.00663864159327
MOLNIYA 1-81            
1 21426U 91043A   12354.23338471  .00000022  00000-0  10000-3 0  8153
2 21426  62.2969  59.9688 7340940 277.7896  11.9727  2.00635560157602
MOLNIYA 3-41            
1 21706U 91065A   12351.92306539  .00001142  00000-0  27359-1 0   936
2 21706  63.4365 215.9084 7108259 285.1161  11.7167  2.04339366156034
MOLNIYA 3-42            
1 22178U 92067A   12355.25489448  .00045553 -49065-7  17738-2 0  4036
2 22178  62.4992 346.2853 7397745 281.5353  10.5437  2.17320519148131
MOLNIYA 1-86            
1 22671U 93035A   12354.50514140  .00030066  00000-0  80992-3 0  3746
2 22671  62.6669 116.0570 5221316 296.3519  19.8145  5.36354164157974
MOLNIYA 3-45            
1 22729U 93049A   12354.47127711  .00001746  00000-0  64515-4 0  4721
2 22729  61.9061  92.2867 7462594 269.0785  13.5548  2.00837312141957
MOLNIYA 1-87            
1 22949U 93079A   12352.54799488 -.00001235  00000-0  47532-2 0  9929
2 22949  61.7212 223.8663 7306756 260.0213  18.1882  2.00371077139193
MOLNIYA 1-88            
1 23420U 94081A   12355.14651454  .00178917 -22452-6  42607-3 0  5969
2 23420  62.3985  28.3678 7432452 280.4034  98.1688  2.15267906132394
MOLNIYA 3-47            
1 23642U 95042A   12354.60823009 -.00000097  00000-0 -54271-2 0   114
2 23642  61.8952 200.1546 7274410 263.8051  16.9509  2.00605825127253
MOLNIYA 1-90            
1 24960U 97054A   12354.66002647 -.00001148  00000-0  50283-3 0  4780
2 24960  62.0471 237.5712 7387218 262.2418  16.5827  2.04628020111872
MOLNIYA 1-91            
1 25485U 98054A   12354.56815245 -.00000335  00000-0  10000-3 0  8075
2 25485  63.2913  18.5248 7408052 254.1791 349.9302  2.00632982104213
MOLNIYA 3-50            
1 25847U 99036A   12354.41822121  .00000082  00000-0  10000-3 0  3896
2 25847  63.4119 128.1562 6994650 258.0306  22.1290  2.00580280 98558
MOLNIYA 3-51            
1 26867U 01030A   12355.18987880 -.00000838  00000-0  00000+0 0  2136
2 26867  63.7122  38.7943 7463860 254.5982  55.8747  2.00603752 83670
MOLNIYA 1-92            
1 27707U 03011A   12354.74069061  .00007176  00000-0  18528-2 0  3694
2 27707  64.2422  45.2594 7507670 244.0701 103.7121  2.01179352 71210
MOLNIYA 3-53            
1 27834U 03029A   12355.15271524 -.00000947  00000-0  00000+0 0  5560
2 27834  64.2619  45.8684 7501696 244.2796  18.4364  2.00848048 69631
MOLNIYA 1-93            
1 28163U 04005A   12354.48327847  .00000385  00000-0  10000-3 0   167
2 28163  64.7442 144.9439 7008823 253.8963  24.9376  2.00620785 64749
